{"type": "FeatureCollection", "features": [{"type": "Feature", "properties": {"norad_id": 2807, "name": "OPS 7218 (TRANSIT 16)", "group": "nnss", "lat": 65.18979465110729, "lon": 172.9273993404493, "alt_km": 1049.2244186243115, "timestamp": "2025-12-24T05:51:19.877037+00:00", "meta": {"OBJECT_NAME": "OPS 7218 (TRANSIT 16)", "OBJECT_ID": "1967-048A", "EPOCH": "2025-12-23T22:28:26.529888", "MEAN_MOTION": 13.50724552, "ECCENTRICITY": 0.00221581, "INCLINATION": 89.6733, "RA_OF_ASC_NODE": 353.6447, "ARG_OF_PERICENTER": 84.2694, "MEAN_ANOMALY": 335.6997, "EPHEMERIS_TYPE": 0, "CLASSIFICATION_TYPE": "U", "NORAD_CAT_ID": 2807, "ELEMENT_SET_NO": 999, "REV_AT_EPOCH": 88427, "BSTAR": 0.00014050883, "MEAN_MOTION_DOT": 1.01e-06, "MEAN_MOTION_DDOT": 0}, "tle": {"line1": "1 02807U 67048A   25357.93641817  .00000101  00000+0  14051-3 0  9998", "line2": "2 02807  89.6733 353.6447 0022158  84.2694 335.6997 13.50724552884273"}}, "geometry": {"type": "Point", "coordinates": [172.9273993404493, 65.18979465110729]}}, {"type": "Feature", "properties": {"norad_id": 2965, "name": "OPS 4947 (TRANSIT 17)", "group": "nnss", "lat": -67.38507107966426, "lon": 21.75289996659485, "alt_km": 1068.1378715672681, "timestamp": "2025-12-24T05:51:19.877060+00:00", "meta": {"OBJECT_NAME": "OPS 4947 (TRANSIT 17)", "OBJECT_ID": "1967-092A", "EPOCH": "2025-12-23T11:18:43.346592", "MEAN_MOTION": 13.53456341, "ECCENTRICITY": 0.00469846, "INCLINATION": 89.2487, "RA_OF_ASC_NODE": 23.6168, "ARG_OF_PERICENTER": 202.6228, "MEAN_ANOMALY": 287.0665, "EPHEMERIS_TYPE": 0, "CLASSIFICATION_TYPE": "U", "NORAD_CAT_ID": 2965, "ELEMENT_SET_NO": 999, "REV_AT_EPOCH": 87242, "BSTAR": 0.0001860791, "MEAN_MOTION_DOT": 1.37e-06, "MEAN_MOTION_DDOT": 0}, "tle": {"line1": "1 02965U 67092A   25357.47133503  .00000137  00000+0  18608-3 0  9990", "line2": "2 02965  89.2487  23.6168 0046984 202.6228 287.0665 13.53456341872423"}}, "geometry": {"type": "Point", "coordinates": [21.75289996659485, -67.38507107966426]}}, {"type": "Feature", "properties": {"norad_id": 3133, "name": "OPS 7034 (TRANSIT 18)", "group": "nnss", "lat": 2.4467152778150476, "lon": -86.32948606936618, "alt_km": 1107.2586325695083, "timestamp": "2025-12-24T05:51:19.877074+00:00", "meta": {"OBJECT_NAME": "OPS 7034 (TRANSIT 18)", "OBJECT_ID": "1968-012A", "EPOCH": "2025-12-23T12:55:24.513024", "MEAN_MOTION": 13.5156815, "ECCENTRICITY": 0.0074852, "INCLINATION": 90.0285, "RA_OF_ASC_NODE": 273.6697, "ARG_OF_PERICENTER": 138.088, "MEAN_ANOMALY": 34.4205, "EPHEMERIS_TYPE": 0, "CLASSIFICATION_TYPE": "U", "NORAD_CAT_ID": 3133, "ELEMENT_SET_NO": 999, "REV_AT_EPOCH": 57064, "BSTAR": 0.00021039635, "MEAN_MOTION_DOT": 1.49e-06, "MEAN_MOTION_DDOT": 0}, "tle": {"line1": "1 03133U 68012A   25357.53847816  .00000149  00000+0  21040-3 0  9994", "line2": "2 03133  90.0285 273.6697 0074852 138.0880  34.4205 13.51568150570645"}}, "geometry": {"type": "Point", "coordinates": [-86.32948606936618, 2.4467152778150476]}}, {"type": "Feature", "properties": {"norad_id": 4507, "name": "NNSS 19 (TRANSIT 19)", "group": "nnss", "lat": -34.05886431254203, "lon": -125.45517558812081, "alt_km": 1020.8976884169415, "timestamp": "2025-12-24T05:51:19.877086+00:00", "meta": {"OBJECT_NAME": "NNSS 19 (TRANSIT 19)", "OBJECT_ID": "1970-067A", "EPOCH": "2025-12-23T05:08:36.510144", "MEAN_MOTION": 13.51317207, "ECCENTRICITY": 0.01702239, "INCLINATION": 90.0049, "RA_OF_ASC_NODE": 234.541, "ARG_OF_PERICENTER": 262.7201, "MEAN_ANOMALY": 95.4575, "EPHEMERIS_TYPE": 0, "CLASSIFICATION_TYPE": "U", "NORAD_CAT_ID": 4507, "ELEMENT_SET_NO": 999, "REV_AT_EPOCH": 72363, "BSTAR": 0.00015353902, "MEAN_MOTION_DOT": 1.17e-06, "MEAN_MOTION_DDOT": 0}, "tle": {"line1": "1 04507U 70067A   25357.21431146  .00000117  00000+0  15354-3 0  9999", "line2": "2 04507  90.0049 234.5410 0170223 262.7201  95.4575 13.51317207723630"}}, "geometry": {"type": "Point", "coordinates": [-125.45517558812081, -34.05886431254203]}}, {"type": "Feature", "properties": {"norad_id": 6909, "name": "NNSS 20 (TRANSIT 20)", "group": "nnss", "lat": 29.110484482287315, "lon": 74.80168341353108, "alt_km": 1024.2717693519908, "timestamp": "2025-12-24T05:51:19.877097+00:00", "meta": {"OBJECT_NAME": "NNSS 20 (TRANSIT 20)", "OBJECT_ID": "1973-081A", "EPOCH": "2025-12-23T16:52:47.423424", "MEAN_MOTION": 13.71439948, "ECCENTRICITY": 0.01562328, "INCLINATION": 89.8561, "RA_OF_ASC_NODE": 254.89, "ARG_OF_PERICENTER": 45.8278, "MEAN_ANOMALY": 315.5602, "EPHEMERIS_TYPE": 0, "CLASSIFICATION_TYPE": "U", "NORAD_CAT_ID": 6909, "ELEMENT_SET_NO": 999, "REV_AT_EPOCH": 80511, "BSTAR": 0.00027861987, "MEAN_MOTION_DOT": 2.84e-06, "MEAN_MOTION_DDOT": 0}, "tle": {"line1": "1 06909U 73081A   25357.70332666  .00000284  00000+0  27862-3 0  9999", "line2": "2 06909  89.8561 254.8900 0156232  45.8278 315.5602 13.71439948805110"}}, "geometry": {"type": "Point", "coordinates": [74.80168341353108, 29.110484482287315]}}, {"type": "Feature", "properties": {"norad_id": 10457, "name": "TRANSAT", "group": "nnss", "lat": -51.55075222459045, "lon": -101.36648010322945, "alt_km": 1077.9050750039933, "timestamp": "2025-12-24T05:51:19.877108+00:00", "meta": {"OBJECT_NAME": "TRANSAT", "OBJECT_ID": "1977-106A", "EPOCH": "2025-12-23T12:45:04.487616", "MEAN_MOTION": 13.48945191, "ECCENTRICITY": 0.00263823, "INCLINATION": 89.6477, "RA_OF_ASC_NODE": 78.2148, "ARG_OF_PERICENTER": 158.8356, "MEAN_ANOMALY": 213.4943, "EPHEMERIS_TYPE": 0, "CLASSIFICATION_TYPE": "U", "NORAD_CAT_ID": 10457, "ELEMENT_SET_NO": 999, "REV_AT_EPOCH": 36889, "BSTAR": 0.00013060746, "MEAN_MOTION_DOT": 9.2e-07, "MEAN_MOTION_DDOT": 0}, "tle": {"line1": "1 10457U 77106A   25357.53130194  .00000092  00000+0  13061-3 0  9990", "line2": "2 10457  89.6477  78.2148 0026382 158.8356 213.4943 13.48945191368892"}}, "geometry": {"type": "Point", "coordinates": [-101.36648010322945, -51.55075222459045]}}, {"type": "Feature", "properties": {"norad_id": 12458, "name": "NOVA 1", "group": "nnss", "lat": 28.504295780266283, "lon": -88.85746109196027, "alt_km": 1167.9759377331811, "timestamp": "2025-12-24T05:51:19.877119+00:00", "meta": {"OBJECT_NAME": "NOVA 1", "OBJECT_ID": "1981-044A", "EPOCH": "2025-12-23T12:48:56.172672", "MEAN_MOTION": 13.23279641, "ECCENTRICITY": 0.00157822, "INCLINATION": 89.8526, "RA_OF_ASC_NODE": 91.2327, "ARG_OF_PERICENTER": 77.4713, "MEAN_ANOMALY": 293.4259, "EPHEMERIS_TYPE": 0, "CLASSIFICATION_TYPE": "U", "NORAD_CAT_ID": 12458, "ELEMENT_SET_NO": 999, "REV_AT_EPOCH": 15329, "BSTAR": 0.00020927536, "MEAN_MOTION_DOT": 9.8e-07, "MEAN_MOTION_DDOT": 0}, "tle": {"line1": "1 12458U 81044A   25357.53398348  .00000098  00000+0  20928-3 0  9992", "line2": "2 12458  89.8526  91.2327 0015782  77.4713 293.4259 13.23279641153298"}}, "geometry": {"type": "Point", "coordinates": [-88.85746109196027, 28.504295780266283]}}, {"type": "Feature", "properties": {"norad_id": 15362, "name": "NOVA 3", "group": "nnss", "lat": 14.461248055636787, "lon": 80.6385204728962, "alt_km": 1168.3533448792841, "timestamp": "2025-12-24T05:51:19.877130+00:00", "meta": {"OBJECT_NAME": "NOVA 3", "OBJECT_ID": "1984-110A", "EPOCH": "2025-12-23T23:24:01.589760", "MEAN_MOTION": 13.23045905, "ECCENTRICITY": 0.0029891, "INCLINATION": 90.1218, "RA_OF_ASC_NODE": 80.6668, "ARG_OF_PERICENTER": 299.5559, "MEAN_ANOMALY": 234.3675, "EPHEMERIS_TYPE": 0, "CLASSIFICATION_TYPE": "U", "NORAD_CAT_ID": 15362, "ELEMENT_SET_NO": 999, "REV_AT_EPOCH": 98847, "BSTAR": 0.00018665977, "MEAN_MOTION_DOT": 8.7e-07, "MEAN_MOTION_DDOT": 0}, "tle": {"line1": "1 15362U 84110A   25357.97501840  .00000087  00000+0  18666-3 0  9991", "line2": "2 15362  90.1218  80.6668 0029891 299.5559 234.3675 13.23045905988475"}}, "geometry": {"type": "Point", "coordinates": [80.6385204728962, 14.461248055636787]}}, {"type": "Feature", "properties": {"norad_id": 15935, "name": "OSCAR 30", "group": "nnss", "lat": -87.2198864579693, "lon": 103.44528216297549, "alt_km": 1226.0940621075815, "timestamp": "2025-12-24T05:51:19.877141+00:00", "meta": {"OBJECT_NAME": "OSCAR 30", "OBJECT_ID": "1985-066A", "EPOCH": "2025-12-23T07:11:12.347808", "MEAN_MOTION": 13.36080022, "ECCENTRICITY": 0.0168989, "INCLINATION": 90.1654, "RA_OF_ASC_NODE": 100.0198, "ARG_OF_PERICENTER": 54.3971, "MEAN_ANOMALY": 359.2429, "EPHEMERIS_TYPE": 0, "CLASSIFICATION_TYPE": "U", "NORAD_CAT_ID": 15935, "ELEMENT_SET_NO": 999, "REV_AT_EPOCH": 96594, "BSTAR": 0.00017615654, "MEAN_MOTION_DOT": 1.08e-06, "MEAN_MOTION_DDOT": 0}, "tle": {"line1": "1 15935U 85066A   25357.29944847  .00000108  00000+0  17616-3 0  9999", "line2": "2 15935  90.1654 100.0198 0168989  54.3971 359.2429 13.36080022965941"}}, "geometry": {"type": "Point", "coordinates": [103.44528216297549, -87.2198864579693]}}, {"type": "Feature", "properties": {"norad_id": 15936, "name": "OSCAR 24", "group": "nnss", "lat": -18.496274157150637, "lon": 92.56884475719808, "alt_km": 1097.7713608274835, "timestamp": "2025-12-24T05:51:19.877151+00:00", "meta": {"OBJECT_NAME": "OSCAR 24", "OBJECT_ID": "1985-066B", "EPOCH": "2025-12-23T12:01:29.855136", "MEAN_MOTION": 13.35937222, "ECCENTRICITY": 0.01701385, "INCLINATION": 90.1791, "RA_OF_ASC_NODE": 92.4958, "ARG_OF_PERICENTER": 60.2847, "MEAN_ANOMALY": 312.2416, "EPHEMERIS_TYPE": 0, "CLASSIFICATION_TYPE": "U", "NORAD_CAT_ID": 15936, "ELEMENT_SET_NO": 999, "REV_AT_EPOCH": 96787, "BSTAR": 0.00013443376, "MEAN_MOTION_DOT": 8.4e-07, "MEAN_MOTION_DDOT": 0}, "tle": {"line1": "1 15936U 85066B   25357.50103999  .00000084  00000+0  13443-3 0  9996", "line2": "2 15936  90.1791  92.4958 0170138  60.2847 312.2416 13.35937222967870"}}, "geometry": {"type": "Point", "coordinates": [92.56884475719808, -18.496274157150637]}}]}